CCSDS_OEM_VERS = 1.0
CREATION_DATE  = 2017-05-11T11:22:49
ORIGINATOR     = GMAT USER

META_START
OBJECT_NAME          = MOPSSat_alt_35785_km_RAAN_90_163
OBJECT_ID            = SatId
CENTER_NAME          = Earth
REF_FRAME            = EME2000
TIME_SYSTEM          = UTC
START_TIME           = 2017-01-01T00:00:00.000
USEABLE_START_TIME   = 2017-01-01T00:00:00.000
USEABLE_STOP_TIME    = 2017-01-02T00:00:00.000
STOP_TIME            = 2017-01-02T00:00:00.000
INTERPOLATION        = Lagrange
INTERPOLATION_DEGREE = 7 
META_STOP


                                                                                   

2017-01-01T02:17:30.000  -3.076935725464255e+04  -8.042417938435629e+03   5.426775468550090e+00  -1.333411708458525e+00  -3.719138354751263e+00   2.435400858233345e-04
2017-01-01T02:17:40.000  -3.078267231690524e+04  -8.079604334637606e+03   5.429207557573959e+00  -1.329601783339605e+00  -3.718140408146132e+00   2.428778963971825e-04
2017-01-01T02:17:50.000  -3.079594931161068e+04  -8.116780738573477e+03   5.431633030121416e+00  -1.325798216350383e+00  -3.717139963934224e+00   2.422167940921727e-04
2017-01-01T02:18:00.000  -3.080918830227602e+04  -8.153947125337796e+03   5.434051897052497e+00  -1.322000994543165e+00  -3.716137036196768e+00   2.415567766521959e-04
2017-01-01T02:18:10.000  -3.082238935230395e+04  -8.191103470206881e+03   5.436464169207412e+00  -1.318210104987936e+00  -3.715131638944438e+00   2.408978418242057e-04
2017-01-01T02:18:20.000  -3.083555252501291e+04  -8.228249748726306e+03   5.438869857412091e+00  -1.314425534763621e+00  -3.714123786115187e+00   2.402399873567368e-04
2017-01-01T02:18:30.000  -3.084867788359123e+04  -8.265385936577628e+03   5.441268972469774e+00  -1.310647270971506e+00  -3.713113491578278e+00   2.395832110022001e-04
2017-01-01T02:18:40.000  -3.086176549109287e+04  -8.302512009564385e+03   5.443661525160241e+00  -1.306875300736597e+00  -3.712100769134999e+00   2.389275105171334e-04
2017-01-01T02:18:50.000  -3.087481541042227e+04  -8.339627943573812e+03   5.446047526237056e+00  -1.303109611211815e+00  -3.711085632519858e+00   2.382728836628929e-04
2017-01-01T02:19:00.000  -3.088782770432693e+04  -8.376733714547239e+03   5.448426986426196e+00  -1.299350189580579e+00  -3.710068095401930e+00   2.376193282061406e-04
2017-01-01T02:19:10.000  -3.090080243543488e+04  -8.413829298588253e+03   5.450799916432878e+00  -1.295597023045987e+00  -3.709048171382107e+00   2.369668419169493e-04
2017-01-01T02:19:20.000  -3.091373966608746e+04  -8.450914671474216e+03   5.453166326910979e+00  -1.291850098879695e+00  -3.708025874007126e+00   2.363154225773395e-04
2017-01-01T02:19:30.000  -3.092663945854318e+04  -8.487989809246959e+03   5.455526228500331e+00  -1.288109404362636e+00  -3.707001216753373e+00   2.356650679709347e-04
2017-01-01T02:19:40.000  -3.093950187490184e+04  -8.525054687992058e+03   5.457879631812830e+00  -1.284374926807193e+00  -3.705974213033340e+00   2.350157758868306e-04
2017-01-01T02:19:50.000  -3.095232697740096e+04  -8.562109284690925e+03   5.460226547486685e+00  -1.280646653471262e+00  -3.704944876172349e+00   2.343675441046163e-04
2017-01-01T02:20:00.000  -3.096511482812021e+04  -8.599153576369457e+03   5.462566986132322e+00  -1.276924571644107e+00  -3.703913219432404e+00   2.337203704093386e-04
2017-01-01T02:20:10.000  -3.097786548904935e+04  -8.636187540290353e+03   5.464900958344814e+00  -1.273208668626834e+00  -3.702879256007236e+00   2.330742525880948e-04
2017-01-01T02:20:20.000  -3.099057902191815e+04  -8.673211153471393e+03   5.467228474672800e+00  -1.269498931781409e+00  -3.701842999035688e+00   2.324291884385891e-04
2017-01-01T02:20:30.000  -3.100325548832448e+04  -8.710224393042323e+03   5.469549545641868e+00  -1.265795348494087e+00  -3.700804461592442e+00   2.317851757627416e-04
2017-01-01T02:20:40.000  -3.101589494973253e+04  -8.747227236243669e+03   5.471864181754261e+00  -1.262097906175785e+00  -3.699763656688196e+00   2.311422123667639e-04
2017-01-01T02:20:50.000  -3.102849746735638e+04  -8.784219660071652e+03   5.474172393467486e+00  -1.258406592296859e+00  -3.698720597280311e+00   2.305002960671739e-04
2017-01-01T02:21:00.000  -3.104106310231927e+04  -8.821201641755491e+03   5.476474191223556e+00  -1.254721394340012e+00  -3.697675296259352e+00   2.298594246826415e-04
2017-01-01T02:21:10.000  -3.105359191559055e+04  -8.858173158568308e+03   5.478769585437389e+00  -1.251042299819000e+00  -3.696627766454802e+00   2.292195960372280e-04
2017-01-01T02:21:20.000  -3.106608396826887e+04  -8.895134188660861e+03   5.481058586548717e+00  -1.247369296195594e+00  -3.695578020611741e+00   2.285808079459774e-04
2017-01-01T02:21:30.000  -3.107853932129906e+04  -8.932084710226472e+03   5.483341204970210e+00  -1.243702370962735e+00  -3.694526071414770e+00   2.279430582293472e-04
2017-01-01T02:21:40.000  -3.109095803553713e+04  -8.969024701689224e+03   5.485617451099376e+00  -1.240041511625650e+00  -3.693471931483031e+00   2.273063447099343e-04
2017-01-01T02:21:50.000  -3.110334017158462e+04  -9.005954141223465e+03   5.487887335288237e+00  -1.236386705750138e+00  -3.692415613383864e+00   2.266706652208510e-04
2017-01-01T02:22:00.000  -3.111568578991328e+04  -9.042873007109902e+03   5.490150867866145e+00  -1.232737940926533e+00  -3.691357129623297e+00   2.260360175994777e-04
2017-01-01T02:22:10.000  -3.112799495086350e+04  -9.079781277734361e+03   5.492408059139493e+00  -1.229095204770064e+00  -3.690296492646223e+00   2.254023996875206e-04
2017-01-01T02:22:20.000  -3.114026771453083e+04  -9.116678931233713e+03   5.494658919370877e+00  -1.225458484955108e+00  -3.689233714847210e+00   2.247698093369720e-04
2017-01-01T02:22:30.000  -3.115250414092114e+04  -9.153565945971943e+03   5.496903458807576e+00  -1.221827769168791e+00  -3.688168808556774e+00   2.241382444020423e-04
2017-01-01T02:22:40.000  -3.116470428988924e+04  -9.190442300351542e+03   5.499141687670279e+00  -1.218203045129401e+00  -3.687101786047194e+00   2.235077027423581e-04
2017-01-01T02:22:50.000  -3.117686822141455e+04  -9.227307973645200e+03   5.501373616203679e+00  -1.214584300504581e+00  -3.686032659508721e+00   2.228781822087526e-04
2017-01-01T02:23:00.000  -3.118899599532553e+04  -9.264162945162809e+03   5.503599254625892e+00  -1.210971522993234e+00  -3.684961441073946e+00   2.222496806574915e-04
2017-01-01T02:23:10.000  -3.120108767136293e+04  -9.301007194439271e+03   5.505818613140077e+00  -1.207364700306924e+00  -3.683888142812684e+00   2.216221959470460e-04
2017-01-01T02:23:20.000  -3.121314330901845e+04  -9.337840700755234e+03   5.508031701904832e+00  -1.203763820217427e+00  -3.682812776745899e+00   2.209957259463316e-04
2017-01-01T02:23:30.000  -3.122516296765628e+04  -9.374663443492289e+03   5.510238531056499e+00  -1.200168870521234e+00  -3.681735354835967e+00   2.203702685285674e-04
2017-01-01T02:23:40.000  -3.123714670651141e+04  -9.411475402131777e+03   5.512439110708830e+00  -1.196579839039884e+00  -3.680655888986865e+00   2.197458215713220e-04
2017-01-01T02:23:50.000  -3.124909458457935e+04  -9.448276555901695e+03   5.514633450932710e+00  -1.192996713653715e+00  -3.679574391055104e+00   2.191223829624246e-04
2017-01-01T02:24:00.000  -3.126100666076711e+04  -9.485066884251490e+03   5.516821561783912e+00  -1.189419482256140e+00  -3.678490872835792e+00   2.184999505919702e-04
2017-01-01T02:24:10.000  -3.127288299383226e+04  -9.521846366660468e+03   5.519003453291895e+00  -1.185848132772121e+00  -3.677405346068609e+00   2.178785223555484e-04
2017-01-01T02:24:20.000  -3.128472364265577e+04  -9.558614983481131e+03   5.521179135509945e+00  -1.182282653076228e+00  -3.676317822413182e+00   2.172580961399496e-04
2017-01-01T02:24:30.000  -3.129652866596868e+04  -9.595372715092448e+03   5.523348618464920e+00  -1.178723031074870e+00  -3.675228313474328e+00   2.166386698375085e-04
2017-01-01T02:24:40.000  -3.130829812242326e+04  -9.632119542117811e+03   5.525511912170361e+00  -1.175169254685027e+00  -3.674136830795925e+00   2.160202413423922e-04
2017-01-01T02:24:50.000  -3.132003207040136e+04  -9.668855444836490e+03   5.527669026591269e+00  -1.171621311891666e+00  -3.673043385878388e+00   2.154028085606234e-04
2017-01-01T02:25:00.000  -3.133173056817359e+04  -9.705580403668479e+03   5.529819971673349e+00  -1.168079190700276e+00  -3.671947990164805e+00   2.147863694017890e-04
2017-01-01T02:25:10.000  -3.134339367386394e+04  -9.742294399065506e+03   5.531964757336492e+00  -1.164542879147506e+00  -3.670850655044361e+00   2.141709217809033e-04
2017-01-01T02:25:20.000  -3.135502144546206e+04  -9.778997411540689e+03   5.534103393477020e+00  -1.161012365297902e+00  -3.669751391851898e+00   2.135564636178058e-04
2017-01-01T02:25:30.000  -3.136661394083283e+04  -9.815689421703839e+03   5.536235889969458e+00  -1.157487637240752e+00  -3.668650211866975e+00   2.129429928366479e-04
2017-01-01T02:25:40.000  -3.137817121772118e+04  -9.852370410274238e+03   5.538362256667415e+00  -1.153968683088780e+00  -3.667547126313768e+00   2.123305073656510e-04
2017-01-01T02:25:50.000  -3.138969333379474e+04  -9.889040358211636e+03   5.540482503411414e+00  -1.150455490965377e+00  -3.666442146357462e+00   2.117190051349214e-04
2017-01-01T02:26:00.000  -3.140118034661502e+04  -9.925699246627761e+03   5.542596640023627e+00  -1.146948049013240e+00  -3.665335283107081e+00   2.111084840779172e-04
2017-01-01T02:26:10.000  -3.141263231363810e+04  -9.962347056785913e+03   5.544704676307952e+00  -1.143446345394317e+00  -3.664226547615777e+00   2.104989421314527e-04
2017-01-01T02:26:20.000  -3.142404929224063e+04  -9.998983770187322e+03   5.546806622054854e+00  -1.139950368281702e+00  -3.663115950878385e+00   2.098903772342505e-04
2017-01-01T02:26:30.000  -3.143543133968030e+04  -1.003560936843990e+04   5.548902487034040e+00  -1.136460105871983e+00  -3.662003503835717e+00   2.092827873291280e-04
